{"fetched_at":"2026-07-23T07:05:23.680Z","source":"https://celestrak.org/NORAD/elements/gp.php?GROUP=spire&FORMAT=JSON","constellation":"spire","records":[{"OBJECT_NAME":"LEMUR-2-MYRA","OBJECT_ID":"2025-276EC","EPOCH":"2026-07-22T11:18:45.244800","CLASSIFICATION_TYPE":"U","MEAN_MOTION":15.00646858,"ECCENTRICITY":0.00184734,"INCLINATION":97.5226,"RA_OF_ASC_NODE":273.2042,"ARG_OF_PERICENTER":31.8904,"MEAN_ANOMALY":328.3435,"EPHEMERIS_TYPE":0,"NORAD_CAT_ID":66787,"ELEMENT_SET_NO":999,"REV_AT_EPOCH":3550,"BSTAR":0.00047195539,"MEAN_MOTION_DOT":0.00005934,"MEAN_MOTION_DDOT":0},{"OBJECT_NAME":"LEMUR-2 FIKRETDENGIZ","OBJECT_ID":"2026-004A","EPOCH":"2026-07-21T22:58:16.777632","CLASSIFICATION_TYPE":"U","MEAN_MOTION":14.88552806,"ECCENTRICITY":0.00097015,"INCLINATION":97.8036,"RA_OF_ASC_NODE":200.9883,"ARG_OF_PERICENTER":36.3875,"MEAN_ANOMALY":323.7999,"EPHEMERIS_TYPE":0,"NORAD_CAT_ID":67363,"ELEMENT_SET_NO":999,"REV_AT_EPOCH":2845,"BSTAR":0.0004489565,"MEAN_MOTION_DOT":0.00004126,"MEAN_MOTION_DDOT":0},{"OBJECT_NAME":"TWILIGHT-1 OBJECT B","OBJECT_ID":"2026-004B","EPOCH":"2026-07-20T23:43:51.115584","CLASSIFICATION_TYPE":"U","MEAN_MOTION":14.87805943,"ECCENTRICITY":0.00093149,"INCLINATION":97.8078,"RA_OF_ASC_NODE":200.0319,"ARG_OF_PERICENTER":28.9865,"MEAN_ANOMALY":331.1867,"EPHEMERIS_TYPE":0,"NORAD_CAT_ID":67364,"ELEMENT_SET_NO":999,"REV_AT_EPOCH":2831,"BSTAR":0.00012739587,"MEAN_MOTION_DOT":0.0000111,"MEAN_MOTION_DDOT":0},{"OBJECT_NAME":"LEMUR-2-MARIO-SOUSA","OBJECT_ID":"2026-004C","EPOCH":"2026-07-22T22:39:39.138336","CLASSIFICATION_TYPE":"U","MEAN_MOTION":14.88774217,"ECCENTRICITY":0.00092419,"INCLINATION":97.8007,"RA_OF_ASC_NODE":201.9554,"ARG_OF_PERICENTER":35.2361,"MEAN_ANOMALY":324.9465,"EPHEMERIS_TYPE":0,"NORAD_CAT_ID":67365,"ELEMENT_SET_NO":999,"REV_AT_EPOCH":2861,"BSTAR":0.00051492136,"MEAN_MOTION_DOT":0.00004767,"MEAN_MOTION_DDOT":0},{"OBJECT_NAME":"LEMUR-2-SONNENBLUME","OBJECT_ID":"2026-004E","EPOCH":"2026-07-22T22:45:51.887808","CLASSIFICATION_TYPE":"U","MEAN_MOTION":14.88482895,"ECCENTRICITY":0.00089045,"INCLINATION":97.8005,"RA_OF_ASC_NODE":201.929,"ARG_OF_PERICENTER":35.7911,"MEAN_ANOMALY":324.3902,"EPHEMERIS_TYPE":0,"NORAD_CAT_ID":67367,"ELEMENT_SET_NO":999,"REV_AT_EPOCH":2861,"BSTAR":0.00026574293,"MEAN_MOTION_DOT":0.00002415,"MEAN_MOTION_DDOT":0},{"OBJECT_NAME":"LEMUR-2-WOBLER","OBJECT_ID":"2026-004F","EPOCH":"2026-07-22T17:38:13.002144","CLASSIFICATION_TYPE":"U","MEAN_MOTION":14.88735759,"ECCENTRICITY":0.00088651,"INCLINATION":97.8058,"RA_OF_ASC_NODE":201.8775,"ARG_OF_PERICENTER":28.3272,"MEAN_ANOMALY":331.8425,"EPHEMERIS_TYPE":0,"NORAD_CAT_ID":67368,"ELEMENT_SET_NO":999,"REV_AT_EPOCH":2858,"BSTAR":0.00041523783,"MEAN_MOTION_DOT":0.00003829,"MEAN_MOTION_DDOT":0},{"OBJECT_NAME":"LEMUR-2-GRAM-E-SUE","OBJECT_ID":"2026-004H","EPOCH":"2026-07-22T22:18:05.921280","CLASSIFICATION_TYPE":"U","MEAN_MOTION":14.88616362,"ECCENTRICITY":0.00081259,"INCLINATION":97.7993,"RA_OF_ASC_NODE":201.9269,"ARG_OF_PERICENTER":39.6409,"MEAN_ANOMALY":320.5401,"EPHEMERIS_TYPE":0,"NORAD_CAT_ID":67370,"ELEMENT_SET_NO":999,"REV_AT_EPOCH":2861,"BSTAR":0.00023658874,"MEAN_MOTION_DOT":0.00002151,"MEAN_MOTION_DDOT":0},{"OBJECT_NAME":"LEMUR-2-KATIE","OBJECT_ID":"2026-004AA","EPOCH":"2026-07-22T22:40:20.649216","CLASSIFICATION_TYPE":"U","MEAN_MOTION":14.902992,"ECCENTRICITY":0.00027726,"INCLINATION":97.8053,"RA_OF_ASC_NODE":202.5193,"ARG_OF_PERICENTER":14.137,"MEAN_ANOMALY":345.9925,"EPHEMERIS_TYPE":0,"NORAD_CAT_ID":67387,"ELEMENT_SET_NO":999,"REV_AT_EPOCH":2863,"BSTAR":0.0005090192,"MEAN_MOTION_DOT":0.00004891,"MEAN_MOTION_DDOT":0},{"OBJECT_NAME":"LEMUR-2-HCS-BAZUS","OBJECT_ID":"2026-004AB","EPOCH":"2026-07-22T22:37:54.856128","CLASSIFICATION_TYPE":"U","MEAN_MOTION":14.9030259,"ECCENTRICITY":0.00022638,"INCLINATION":97.8041,"RA_OF_ASC_NODE":202.495,"ARG_OF_PERICENTER":15.6323,"MEAN_ANOMALY":344.4965,"EPHEMERIS_TYPE":0,"NORAD_CAT_ID":67388,"ELEMENT_SET_NO":999,"REV_AT_EPOCH":2863,"BSTAR":0.00042097763,"MEAN_MOTION_DOT":0.00004035,"MEAN_MOTION_DDOT":0}]}
